261P/Larson,e,6.0754,291.1597,67.1518,3.490118,0.1511624,0.42318676,103.4079,05/03.0/2021,2000,g 14.0,4.0
# From MPC 82322
262P/McNaught-Russell,e,29.2110,217.8872,171.0097,6.874778,0.0546784,0.81556020,168.1327,05/03.0/2021,2000,g 13.5,4.0
# From MPC 89018
263P/Gibbs,e,11.5373,105.7434,34.5448,3.050558,0.1849845,0.59195518,241.9677,05/03.0/2021,2000,g  9.0,4.0
# From MPC114608
264P/Larsen,e,25.1393,220.6866,346.7295,3.895751,0.1281791,0.37482627,81.6622,05/03.0/2021,2000,g 13.0,4.0
# From MPC 79870
265P/LINEAR,e,14.3650,342.9272,33.4268,4.251366,0.1124375,0.64740948,9.3270,05/03.0/2021,2000,g 14.5,4.0
# From MPEC 2021-F20
266P/Christensen,e,3.4268,4.9965,97.7988,3.534422,0.1483291,0.33944073,56.1648,05/03.0/2021,2000,g 14.7,4.0
# From MPC114608
267P/LONEOS,e,6.1386,228.6275,114.1360,3.211895,0.1712230,0.61425053,173.8055,05/03.0/2021,2000,g 19.5,4.0
# From MPC 92277
268P/Bernardi,e,16.1469,127.5858,359.9308,4.545044,0.1017178,0.47421475,223.8087,05/03.0/2021,2000,g 14.0,4.0
# From MPC104795
269P/Jedicke,e,7.0723,241.7082,225.8800,7.077339,0.0523479,0.43044055,126.0298,05/03.0/2021,2000,g 10.0,4.0
# From MPC 88332
270P/Gehrels,e,2.9194,222.9773,209.8406,6.666167,0.0572651,0.46739829,165.3306,05/03.0/2021,2000,g  8.0,4.0
# From MPC 92277
271P/van Houten-Lemmon,e,6.8696,9.3070,36.4054,7.044063,0.0527193,0.39409967,150.3824,05/03.0/2021,2000,g 11.0,4.0
# From MPC 81862
272P/NEAT,e,18.0761,109.4669,27.9425,4.456523,0.1047635,0.45430352,313.8812,05/03.0/2021,2000,g 16.0,2.0
# From MPC 82723
273P/Pons-Gambart,e,136.7935,320.4011,20.3260,31.81429,0.0054925,0.97409935,0.0000,12/18.1057/2012,2000,g 11.5,4.0
# From MPC 88332
274P/Tombaugh-Tenagra,e,15.8174,81.3390,38.4898,4.372599,0.1077940,0.43898515,323.2900,05/03.0/2021,2000,g 13.0,4.0
# From MPC 81862
275P/Hermann,e,21.2751,348.7572,174.0685,5.772795,0.0710599,0.71238778,217.1643,05/03.0/2021,2000,g 17.0,4.0
# From MPEC 2020-K19
276P/Vorobjov,e,14.8120,211.4008,199.7424,5.316949,0.0803915,0.26722750,253.6605,05/03.0/2021,2000,g 11.5,4.0
# From MPEC 2021-F20
277P/LINEAR,e,16.7782,276.3448,152.3158,3.852943,0.1303212,0.50571217,16.1375,05/03.0/2021,2000,g 15.1,4.0
# From MPEC 2020-W26
278P/McNaught,e,6.6867,15.4100,238.0916,3.696293,0.1386930,0.43552292,32.3113,05/03.0/2021,2000,g 14.0,4.0
# From MPC100285
279P/La Sagra,e,5.0524,346.2321,5.7864,3.574361,0.1458500,0.39844332,255.4849,05/03.0/2021,2000,g 14.0,4.0
# From MPC 89013
280P/Larsen,e,11.7753,131.3927,104.7953,4.529386,0.1022457,0.41767177,275.7908,05/03.0/2021,2000,g 12.5,4.0
# From MPC 83145
281P/MOSS,e,4.7196,87.1763,26.7575,4.871545,0.0916651,0.17184036,301.2899,05/03.0/2021,2000,g 11.0,4.0
# From MPC xxxxx
282P/,e,5.8112,9.2948,217.6090,4.242458,0.1127918,0.18890536,340.3195,05/03.0/2021,2000,g 13.5,2.0
# From MPEC 2021-BE3
283P/Spacewatch,e,14.4547,161.1291,22.2541,4.139624,0.1170207,0.48493618,345.0182,05/03.0/2021,2000,g 16.0,2.0
# From MPEC 2020-K19
284P/McNaught,e,11.8607,144.2634,202.5042,3.680011,0.1396145,0.37622804,341.4487,05/03.0/2021,2000,g 13.0,4.0
# From MPC 85339
285P/LINEAR,e,25.0358,185.4995,178.4163,4.508232,0.1029662,0.61836415,296.2156,05/03.0/2021,2000,g 15.0,4.0
# From MPEC 2021-J28
286P/Christensen,e,17.0451,283.9591,24.8274,4.109361,0.1183158,0.42534461,315.6802,05/03.0/2021,2000,g 14.0,4.0
# From MPC 96868
287P/Christensen,e,16.3199,139.0451,188.9228,4.165740,0.1159220,0.27090372,268.1666,05/03.0/2021,2000,g 13.5,4.0
# From MPC xxxxx
288P/,e,3.2394,83.1866,280.5264,3.049780,0.1850552,0.20142424,303.7433,05/03.0/2021,2000,g 16.0,2.0
# From MPEC 2021-F20
289P/Blanpain,e,5.8947,68.8857,9.8657,3.047036,0.1853053,0.68542757,92.4743,05/03.0/2021,2000,g 19.0,4.0
# From MPC 95214
290P/Jager,e,20.1912,302.6898,181.9649,6.203881,0.0637836,0.63055871,168.4528,05/03.0/2021,2000,g 10.5,4.0
# From MPC 89314
291P/NEAT,e,6.3089,238.0704,173.8042,4.522588,0.1024763,0.43562137,284.8842,05/03.0/2021,2000,g 13.0,4.0
# From MPC115887
292P/Li,e,24.2602,90.9820,319.4554,6.107513,0.0652991,0.58825232,173.0137,05/03.0/2021,2000,g 12.5,4.0
# From MPEC 2021-J28
293P/Spacewatch,e,9.0563,78.4090,41.0502,3.644015,0.1416883,0.41828232,19.0930,05/03.0/2021,2000,g 14.5,4.0
# From MPEC 2020-SI8
294P/LINEAR,e,18.2249,312.5882,235.4082,3.204127,0.1718460,0.59618203,89.2855,05/03.0/2021,2000,g 15.5,4.0
# From MPC 93589
295P/LINEAR,e,21.0736,7.4243,72.9069,5.306511,0.0806288,0.61613719,206.0380,05/03.0/2021,2000,g 12.0,4.0
# From MPEC 2020-SI8
296P/Garradd,e,25.2290,263.6251,350.1104,3.497721,0.1506698,0.47878784,34.2199,05/03.0/2021,2000,g 14.0,4.0
# From MPC102956
297P/Beshore,e,10.3285,97.6598,132.5131,3.442339,0.1543205,0.31922916,15.4465,05/03.0/2021,2000,g 15.0,4.0
# From MPC114609
298P/Christensen,e,7.8705,52.8221,100.6776,3.591871,0.1447848,0.38663917,34.5572,05/03.0/2021,2000,g 15.0,4.0
# From MPC101100
299P/Catalina-PANSTARRS,e,10.4747,271.6255,323.8895,4.385117,0.1073327,0.28151126,242.5926,05/03.0/2021,2000,g 11.5,4.0
# From MPC114609
300P/Catalina,e,5.6753,95.6596,222.8887,2.699992,0.2221571,0.69178217,202.7250,05/03.0/2021,2000,g 16.0,4.0
# From MPC 89014
301P/LINEAR-NEAT,e,10.3407,351.1761,193.6998,5.738767,0.0716929,0.58529809,174.9248,05/03.0/2021,2000,g 13.0,4.0
# From MPEC 2020-HN5
302P/Lemmon-PANSTARRS,e,6.0342,121.7549,208.2432,4.276259,0.1114572,0.23012816,203.4896,05/03.0/2021,2000,g 12.5,4.0
# From MPC 92278
303P/NEAT,e,7.0208,347.9710,356.8826,5.047585,0.0869118,0.51059593,207.6749,05/03.0/2021,2000,g 13.5,4.0
# From MPEC 2020-N08
304P/Ory,e,2.6067,58.9321,335.2329,3.150516,0.1762510,0.60052318,46.4567,05/03.0/2021,2000,g 16.5,4.0
# From MPC101100
305P/Skiff,e,11.6493,240.1171,147.2869,4.643971,0.0984849,0.69325088,232.4987,05/03.0/2021,2000,g 18.0,4.0
# From MPC 92278
306P/LINEAR,e,8.3111,341.3746,0.8384,3.122978,0.1785873,0.59330800,83.2352,05/03.0/2021,2000,g 19.0,4.0
# From MPC 92278
307P/LINEAR,e,4.4341,158.1517,222.1322,5.792974,0.0706890,0.67466890,164.3442,05/03.0/2021,2000,g 15.0,4.0
# From MPC109148
308P/Lagerkvist-Carsenty,e,4.8507,63.0847,333.5916,6.604347,0.0580710,0.36337244,127.1050,05/03.0/2021,2000,g 13.0,2.0
# From MPC 94284
309P/LINEAR,e,17.0233,10.1415,49.9576,4.371690,0.1078276,0.61766718,245.5130,05/03.0/2021,2000,g 15.0,4.0
# From MPC 98566
310P/Hill,e,13.1278,8.9247,31.8273,4.178382,0.1153963,0.42184342,255.5931,05/03.0/2021,2000,g 13.5,4.0
# From MPEC 2021-BE3
311P/PANSTARRS,e,4.9696,279.2266,144.5852,2.188866,0.3043515,0.11550703,63.1698,05/03.0/2021,2000,g 17.0,4.0
# From MPEC 2021-BE3
312P/NEAT,e,19.7684,144.6694,207.5448,3.466447,0.1527134,0.42783441,33.5933,05/03.0/2021,2000,g 16.0,4.0
# From MPEC 2021-BE3
313P/Gibbs,e,10.9829,105.9735,254.6849,3.162415,0.1752571,0.23498928,67.0443,05/03.0/2021,2000,g 15.0,4.0
# From MPC105243
314P/Montani,e,3.9800,267.6144,214.1377,7.269801,0.0502829,0.41602471,83.8720,05/03.0/2021,2000,g  9.5,4.0
# From MPC115888
315P/LONEOS,e,17.7639,68.9390,65.6955,4.939214,0.0897878,0.52152946,145.1019,05/03.0/2021,2000,g 11.0,4.0
# From MPC 92279
316P/LONEOS-Christensen,e,9.8483,246.6504,193.3668,4.360516,0.1082424,0.15757402,219.6482,05/03.0/2021,2000,g 13.5,4.0
# From MPEC 2020-C98
317P/WISE,e,11.9498,275.5111,334.8930,2.964873,0.1930612,0.57049435,42.2478,05/03.0/2021,2000,g 17.5,4.0
# From MPC102103
318P/McNaught-Hartley,e,17.8773,35.5922,313.1703,7.498164,0.0480034,0.67520821,96.8393,05/03.0/2021,2000,g  8.5,6.0
# From MPC 97499
319P/Catalina-McNaught,e,15.0949,111.3755,203.6522,3.567447,0.1462742,0.66661596,311.3749,05/03.0/2021,2000,g 15.0,4.0
# From MPC 96281
320P/McNaught,e,4.9089,295.9293,0.7733,3.093558,0.1811409,0.68571371,19.1759,05/03.0/2021,2000,g 20.5,4.0
# From MPC105243
321P/SOHO,e,20.0754,165.0247,172.7393,2.423390,0.2612578,0.98110192,0.0000,01/17.3068/2020,2000,g 20.0,4.0
# From MPC102103
322P/SOHO,e,11.4643,351.5008,56.8995,2.508007,0.2481480,0.97981017,0.0000,08/31.4400/2019,2000,g 19.0,4.0
# From MPEC 2016-Y36
323P/SOHO,e,5.3386,324.3753,353.0538,2.582282,0.2375191,0.98484279,0.0000,01/17.7624/2021,2000,g 20.0,4.0
# From MPC108598
324P/La Sagra,e,21.4050,270.6213,57.6773,3.097470,0.1807979,0.15460200,359.4632,05/03.0/2021,2000,g 13.0,4.0
# From MPC114609
325P/Yang-Gao,e,16.6950,257.5701,343.6895,3.523864,0.1489963,0.59354881,310.8090,05/03.0/2021,2000,g 14.0,4.0
# From MPC103849
326P/Hill,e,2.4708,99.8120,278.5908,4.063608,0.1203196,0.31767489,243.0701,05/03.0/2021,2000,g 13.5,4.0
# From MPC 97499
327P/Van Ness,e,36.2498,173.9812,185.0332,3.562288,0.1465921,0.56301279,288.5390,05/03.0/2021,2000,g 16.0,4.0
# From MPC109148
328P/LONEOS-Tucker,e,17.6721,341.6314,30.4853,4.194763,0.1147210,0.55207710,224.3762,05/03.0/2021,2000,g 14.5,4.0
# From MPC101101
329P/LINEAR-Catalina,e,21.6711,87.6768,343.5334,5.191617,0.0833202,0.67711253,165.0722,05/03.0/2021,2000,g 13.5,4.0
# From MPC105243
330P/Catalina,e,15.6946,293.0953,188.9652,6.629495,0.0577409,0.54835262,98.7748,05/03.0/2021,2000,g 12.0,4.0
# From MPEC 2021-BE3
331P/Gibbs,e,9.7385,216.7750,183.8920,3.004173,0.1892852,0.04091114,40.6335,05/03.0/2021,2000,g 12.0,4.0
# From MPEC 2016-K18
332P/Ikeya-Murakami,e,9.3799,3.7875,152.3437,3.089224,0.1815223,0.48947939,340.5002,05/03.0/2021,2000,g 18.0,4.0
# From MPEC 2016-EI8
332P-B/Ikeya-Murakami,e,9.3805,3.8028,152.3711,3.082329,0.1821317,0.48970701,359.9699,03/17.0/2016,2000,g 19.0,4.0
# From MPEC 2016-K18
332P-C/Ikeya-Murakami,e,9.3789,3.7879,152.3350,3.089190,0.1815253,0.48948485,340.5140,05/03.0/2021,2000,g 16.5,4.0
# From MPEC 2016-ED0
332P-D/Ikeya-Murakami,e,9.3761,3.7923,152.4393,3.081138,0.1822373,0.48977814,359.9486,03/17.0/2016,2000,g 19.0,4.0
# From MPEC 2016-ED0
332P-E/Ikeya-Murakami,e,9.3774,3.8228,152.2825,3.079877,0.1823493,0.48922008,359.9889,03/17.0/2016,2000,g 21.0,4.0
# From MPEC 2016-ED0
332P-F/Ikeya-Murakami,e,9.5293,3.4757,152.8203,3.163214,0.1751908,0.49918860,359.8501,03/17.0/2016,2000,g 21.0,4.0
# From MPEC 2016-ED0
332P-G/Ikeya-Murakami,e,9.2523,3.6955,154.4000,3.050519,0.1849880,0.49200362,359.9006,03/19.0/2016,2000,g 19.0,4.0
# From MPC100285
